{"type":"FeatureCollection","display_extent_wgs84":[-118.52345,34.0492,-118.5195,34.0517],"features":[{"type":"Feature","id":976529,"properties":{"source_object_id":976529},"geometry":{"type":"Polygon","coordinates":[[[-118.519601262734,34.05140703845593],[-118.51964043000794,34.05140395715106],[-118.51975362020089,34.05139682011976],[-118.519866919655,34.05139133125043],[-118.51989238198693,34.051493560498336],[-118.51992301078938,34.05159436241268],[-118.51995872678096,34.05169347607178],[-118.51996006657353,34.05169690860985],[-118.51996060753609,34.05170399906575],[-118.51995998433227,34.05171108276693],[-118.51995821366553,34.051717969852284],[-118.5199553429942,34.0517244757305],[-118.51995144925951,34.0517304260276],[-118.51994663682343,34.05173566126059],[-118.5199410346714,34.051740041111955],[-118.51993479295525,34.05174344819062],[-118.51992807896879,34.05174579117826],[-118.5199210726638,34.05174700727688],[-118.519913961827,34.051747063891966],[-118.51977691088045,34.0517535186484],[-118.5196400172007,34.051762724422204],[-118.519601262734,34.05140703845593]]]}},{"type":"Feature","id":976530,"properties":{"source_object_id":976530},"geometry":{"type":"Polygon","coordinates":[[[-118.51940428232656,34.05142429080122],[-118.51941460846352,34.051423174706834],[-118.51952741509365,34.05141274206063],[-118.519601262734,34.05140703845593],[-118.5196400172007,34.051762724422204],[-118.51959675709395,34.051765960731395],[-118.51949133825632,34.051775317458734],[-118.51945606983098,34.05177895900205],[-118.51940428232656,34.05142429080122]]]}},{"type":"Feature","id":976546,"properties":{"source_object_id":976546},"geometry":{"type":"Polygon","coordinates":[[[-118.52165065304494,34.05189051640586],[-118.52154828432067,34.051870156978524],[-118.52164432847259,34.0515221055918],[-118.52175403474516,34.051543917098236],[-118.52183089271144,34.051560374658635],[-118.52172281705225,34.05190595011185],[-118.52165065304494,34.05189051640586]]]}},{"type":"Feature","id":976547,"properties":{"source_object_id":976547},"geometry":{"type":"Polygon","coordinates":[[[-118.52144400846969,34.05185101477464],[-118.52136234747317,34.05183729812202],[-118.52144527164585,34.05148691286896],[-118.52153274895852,34.05150164854594],[-118.52164432847259,34.0515221055918],[-118.52154828432067,34.051870156978524],[-118.52144400846969,34.05185101477464]]]}},{"type":"Feature","id":976548,"properties":{"source_object_id":976548},"geometry":{"type":"Polygon","coordinates":[[[-118.52134007323353,34.05183354722804],[-118.52123581716228,34.051817564841826],[-118.52118030761041,34.05180994543573],[-118.52125034512376,34.05145758249183],[-118.5213098858649,34.051465816478895],[-118.52142151040883,34.05148292110052],[-118.52144527164585,34.05148691286896],[-118.52136234747317,34.05183729812202],[-118.52134007323353,34.05183354722804]]]}},{"type":"Feature","id":976549,"properties":{"source_object_id":976549},"geometry":{"type":"Polygon","coordinates":[[[-118.52113124059288,34.051803122571584],[-118.52102634317741,34.05179016545992],[-118.52099737124333,34.05178704793769],[-118.52105449167661,34.05143311957896],[-118.52108564382975,34.051436474990105],[-118.52119790833255,34.05145033453733],[-118.52125034512376,34.05145758249183],[-118.52118030761041,34.05180994543573],[-118.52113124059288,34.051803122571584]]]}},{"type":"Feature","id":976550,"properties":{"source_object_id":976550},"geometry":{"type":"Polygon","coordinates":[[[-118.52092122446048,34.05177877551366],[-118.52081588409415,34.05176889777571],[-118.52081367124764,34.05176874244539],[-118.52085784314842,34.05141349607822],[-118.52086028724133,34.05141367788923],[-118.52097309252115,34.05142426531451],[-118.52105449167661,34.05143311957896],[-118.52099737124333,34.05178704793769],[-118.52092122446048,34.05177877551366]]]}},{"type":"Feature","id":976551,"properties":{"source_object_id":976551},"geometry":{"type":"Polygon","coordinates":[[[-118.52071032224384,34.05176055972365],[-118.52062934169439,34.05175535812499],[-118.52066050127775,34.05139915121035],[-118.52074729417897,34.05140473990705],[-118.52085784314842,34.05141349607822],[-118.52081367124764,34.05176874244539],[-118.52071032224384,34.05176055972365]]]}},{"type":"Feature","id":976552,"properties":{"source_object_id":976552},"geometry":{"type":"Polygon","coordinates":[[[-118.52060463794044,34.05175376093001],[-118.52049879799505,34.05174847405845],[-118.52044467761036,34.05174656395424],[-118.52046276108531,34.05138975395267],[-118.52052084371653,34.051391811842926],[-118.5206341463396,34.05139745122506],[-118.52066050127775,34.05139915121035],[-118.52062934169439,34.05175535812499],[-118.52060463794044,34.05175376093001]]]}},{"type":"Feature","id":976553,"properties":{"source_object_id":976553},"geometry":{"type":"Polygon","coordinates":[[[-118.52039290178035,34.05174475363835],[-118.52028691610745,34.0517425723335],[-118.52025974464793,34.051742304690706],[-118.52026478725494,34.05138524863557],[-118.52029397182346,34.05138542516632],[-118.52040741914429,34.0513877941396],[-118.52046276108531,34.05138975395267],[-118.52044467761036,34.05174656395424],[-118.52039290178035,34.05174475363835]]]}},{"type":"Feature","id":976554,"properties":{"source_object_id":976554},"geometry":{"type":"Polygon","coordinates":[[[-118.52021870651336,34.051741849467405],[-118.52020304169726,34.051740582124125],[-118.5201877767987,34.05173684374277],[-118.52017329907339,34.051730729162465],[-118.52015997580713,34.05172239350417],[-118.52014814499829,34.05171204823545],[-118.520138106783,34.05169995580574],[-118.52013011582103,34.05168642298823],[-118.52012864142114,34.05168258056461],[-118.52009164963194,34.05158556773301],[-118.52005997229746,34.05148669190965],[-118.52003370261168,34.05138624398497],[-118.52026478725494,34.05138524863557],[-118.52025974464793,34.051742304690706],[-118.52022326305571,34.05174196723326],[-118.52021870651336,34.051741849467405]]]}},{"type":"Feature","id":976555,"properties":{"source_object_id":976555},"geometry":{"type":"Polygon","coordinates":[[[-118.52194732711169,34.051951556821365],[-118.52203923854606,34.05160278104228],[-118.52214449959939,34.05162092170213],[-118.5222501713669,34.05163649252234],[-118.52218059991564,34.05198882657244],[-118.52206373400568,34.05197162819623],[-118.52194732711169,34.051951556821365]]]}},{"type":"Feature","id":976556,"properties":{"source_object_id":976556},"geometry":{"type":"Polygon","coordinates":[[[-118.52172281705225,34.05190595011185],[-118.52183089271144,34.051560374658635],[-118.52186388320766,34.05156767546341],[-118.52203923854606,34.05160278104228],[-118.52194732711169,34.051951556821365],[-118.52175326836257,34.05191269172865],[-118.52172281705225,34.05190595011185]]]}},{"type":"Feature","id":976564,"properties":{"source_object_id":976564},"geometry":{"type":"Polygon","coordinates":[[[-118.52313695829926,34.051888263669255],[-118.52315835917435,34.0518467867334],[-118.52317468263453,34.0518030617027],[-118.52318569762306,34.05175770750014],[-118.52319124822398,34.05171136610944],[-118.52319244926012,34.05170440017145],[-118.52319473674099,34.05169771180759],[-118.52319805310232,34.05169146932993],[-118.52320231488818,34.05168582982986],[-118.52320741485111,34.05168093522487],[-118.523213224651,34.05167690868728],[-118.52321959808478,34.051673851544535],[-118.52322637476554,34.05167184072935],[-118.52323338415873,34.05167092684371],[-118.52323682430578,34.05167069210631],[-118.52339862588077,34.05165688346276],[-118.52345060962016,34.05201380245415],[-118.52313695829926,34.051888263669255]]]}},{"type":"Feature","id":976565,"properties":{"source_object_id":976565},"geometry":{"type":"Polygon","coordinates":[[[-118.52339862588077,34.05165688346276],[-118.52349674619543,34.05164606616443],[-118.52359460790389,34.05163311641104],[-118.5236660784894,34.0519808003196],[-118.52345060962016,34.05201380245415],[-118.52339862588077,34.05165688346276]]]}},{"type":"Feature","id":976575,"properties":{"source_object_id":976575},"geometry":{"type":"Polygon","coordinates":[[[-118.52284135080578,34.051681033384725],[-118.52300710976243,34.051680734660025],[-118.52301172919294,34.05168068030471],[-118.52301895011253,34.05168102582996],[-118.52302602003633,34.051682534884215],[-118.52303275273674,34.05168516771776],[-118.5230389708689,34.05168885497959],[-118.52304451064208,34.05169349954419],[-118.5230492261341,34.05169897906992],[-118.52305299313505,34.051705149221554],[-118.523055712419,34.051711847472234],[-118.52305731235776,34.05171889738452],[-118.52305775080765,34.05172611325792],[-118.5230570673942,34.05173000105882],[-118.52304609481256,34.05177381090087],[-118.52302956827278,34.051815841524125],[-118.52300776335555,34.05185539206638],[-118.52298104365867,34.05189180302087],[-118.5229498547341,34.051924467233576],[-118.52291471665829,34.051952840027525],[-118.52287621535999,34.05197644828534],[-118.52283499284975,34.051994898338414],[-118.52284135080578,34.051681033384725]]]}},{"type":"Feature","id":976576,"properties":{"source_object_id":976576},"geometry":{"type":"Polygon","coordinates":[[[-118.52261531434257,34.0520305277096],[-118.52264346060457,34.0516741958883],[-118.5227025393463,34.051677127746565],[-118.5227733350208,34.05167962414812],[-118.52284135080578,34.051681033384725],[-118.52283499284975,34.051994898338414],[-118.5227840424889,34.052012780397504],[-118.5227314122165,34.052024853580114],[-118.52267776205555,34.052030966479506],[-118.52262376481914,34.05203104243537],[-118.52261531434257,34.0520305277096]]]}},{"type":"Feature","id":976577,"properties":{"source_object_id":976577},"geometry":{"type":"Polygon","coordinates":[[[-118.5223972579114,34.05201402203985],[-118.52244624643002,34.05165930380226],[-118.52254477049499,34.05166784930005],[-118.52264346060457,34.0516741958883],[-118.52261531434257,34.0520305277096],[-118.52250619835658,34.05202343440973],[-118.5223972579114,34.05201402203985]]]}},{"type":"Feature","id":976578,"properties":{"source_object_id":976578},"geometry":{"type":"Polygon","coordinates":[[[-118.52218059991564,34.05198882657244],[-118.5222501713669,34.05163649252234],[-118.52234807593635,34.05164904104224],[-118.52244624643002,34.05165930380226],[-118.5223972579114,34.05201402203985],[-118.52228878356786,34.05200267414603],[-118.52218059991564,34.05198882657244]]]}},{"type":"Feature","id":977039,"properties":{"source_object_id":977039},"geometry":{"type":"Polygon","coordinates":[[[-118.52310274877591,34.04917296670452],[-118.52352493244726,34.049108347660784],[-118.52355479575562,34.04924349719312],[-118.5231326112535,34.04930808886348],[-118.52310274877591,34.04917296670452]]]}},{"type":"Feature","id":977040,"properties":{"source_object_id":977040},"geometry":{"type":"Polygon","coordinates":[[[-118.5231326112535,34.04930808886348],[-118.52355479575562,34.04924349719312],[-118.52358462597716,34.04937861938384],[-118.5231624078049,34.0494432113019],[-118.5231326112535,34.04930808886348]]]}},{"type":"Feature","id":977041,"properties":{"source_object_id":977041},"geometry":{"type":"Polygon","coordinates":[[[-118.5231624078049,34.0494432113019],[-118.52358462597716,34.04937861938384],[-118.52361445629506,34.049513741568084],[-118.52319230348681,34.049578333304844],[-118.5231624078049,34.0494432113019]]]}},{"type":"Feature","id":977042,"properties":{"source_object_id":977042},"geometry":{"type":"Polygon","coordinates":[[[-118.52319230348681,34.049578333304844],[-118.52361445629506,34.049513741568084],[-118.52364431972066,34.04964886360271],[-118.5232221334141,34.04971348306553],[-118.52319230348681,34.049578333304844]]]}},{"type":"Feature","id":977043,"properties":{"source_object_id":977043},"geometry":{"type":"Polygon","coordinates":[[[-118.5232221334141,34.04971348306553],[-118.52364431972066,34.04964886360271],[-118.52367415040332,34.04978401325223],[-118.52325199627744,34.04984860519847],[-118.5232221334141,34.04971348306553]]]}},{"type":"Feature","id":977044,"properties":{"source_object_id":977044},"geometry":{"type":"Polygon","coordinates":[[[-118.52325199627744,34.04984860519847],[-118.52367415040332,34.04978401325223],[-118.52370398101033,34.049919135417056],[-118.5232818262257,34.04998372746802],[-118.52325199627744,34.04984860519847]]]}},{"type":"Feature","id":977045,"properties":{"source_object_id":977045},"geometry":{"type":"Polygon","coordinates":[[[-118.5232818262257,34.04998372746802],[-118.52370398101033,34.049919135417056],[-118.52373384472529,34.05005425743222],[-118.52331168945379,34.05011887706619],[-118.5232818262257,34.04998372746802]]]}},{"type":"Feature","id":977046,"properties":{"source_object_id":977046},"geometry":{"type":"Polygon","coordinates":[[[-118.52331168945379,34.05011887706619],[-118.52373384472529,34.05005425743222],[-118.52376367569698,34.05018940706228],[-118.52334148658318,34.050253999465816],[-118.52331168945379,34.05011887706619]]]}},{"type":"Feature","id":977047,"properties":{"source_object_id":977047},"geometry":{"type":"Polygon","coordinates":[[[-118.52334148658318,34.050253999465816],[-118.52376367569698,34.05018940706228],[-118.52379350659312,34.05032452920762],[-118.52337138284393,34.05038912142978],[-118.52334148658318,34.050253999465816]]]}},{"type":"Feature","id":977048,"properties":{"source_object_id":977048},"geometry":{"type":"Polygon","coordinates":[[[-118.52337138284393,34.05038912142978],[-118.52379350659312,34.05032452920762],[-118.52382337059734,34.05045965120335],[-118.52340121317769,34.05052424367338],[-118.52337138284393,34.05038912142978]]]}},{"type":"Feature","id":977049,"properties":{"source_object_id":977049},"geometry":{"type":"Polygon","coordinates":[[[-118.52340121317769,34.05052424367338],[-118.52382337059734,34.05045965120335],[-118.52385320203034,34.05059482829219],[-118.52343107679152,34.05065939324558],[-118.52340121317769,34.05052424367338]]]}},{"type":"Feature","id":977050,"properties":{"source_object_id":977050},"geometry":{"type":"Polygon","coordinates":[[[-118.52343107679152,34.05065939324558],[-118.52385320203034,34.05059482829219],[-118.52388306588327,34.05072989531842],[-118.52346090731808,34.050794515476206],[-118.52343107679152,34.05065939324558]]]}},{"type":"Feature","id":977055,"properties":{"source_object_id":977055},"geometry":{"type":"Polygon","coordinates":[[[-118.52314026284017,34.05131855514519],[-118.52356239145706,34.051253963728],[-118.52360863344346,34.051463510289224],[-118.52346700716349,34.0514830537897],[-118.52332483385653,34.05149811042866],[-118.52318225563477,34.051508665155936],[-118.52314026284017,34.05131855514519]]]}},{"type":"Feature","id":977056,"properties":{"source_object_id":977056},"geometry":{"type":"Polygon","coordinates":[[[-118.52312833731844,34.05126450069643],[-118.5230985069896,34.0511293509023],[-118.52352056866023,34.05106475991796],[-118.52355046549985,34.0511998818429],[-118.52356239145706,34.051253963728],[-118.52314026284017,34.05131855514519],[-118.52312833731844,34.05126450069643]]]}},{"type":"Feature","id":977057,"properties":{"source_object_id":977057},"geometry":{"type":"Polygon","coordinates":[[[-118.52306861090509,34.050994228866024],[-118.5234907709529,34.05092963755724],[-118.52352056866023,34.05106475991796],[-118.5230985069896,34.0511293509023],[-118.52306861090509,34.050994228866024]]]}},{"type":"Feature","id":977058,"properties":{"source_object_id":977058},"geometry":{"type":"Polygon","coordinates":[[[-118.52303878094088,34.05085910653717],[-118.52346090731808,34.050794515476206],[-118.5234907709529,34.05092963755724],[-118.52306861090509,34.050994228866024],[-118.52303878094088,34.05085910653717]]]}},{"type":"Feature","id":977059,"properties":{"source_object_id":977059},"geometry":{"type":"Polygon","coordinates":[[[-118.5230089180612,34.050723984344856],[-118.52343107679152,34.05065939324558],[-118.52346090731808,34.050794515476206],[-118.52303878094088,34.05085910653717],[-118.5230089180612,34.050723984344856]]]}},{"type":"Feature","id":977060,"properties":{"source_object_id":977060},"geometry":{"type":"Polygon","coordinates":[[[-118.52297908811803,34.0505888345248],[-118.52340121317769,34.05052424367338],[-118.52343107679152,34.05065939324558],[-118.5230089180612,34.050723984344856],[-118.52297908811803,34.0505888345248]]]}},{"type":"Feature","id":977061,"properties":{"source_object_id":977061},"geometry":{"type":"Polygon","coordinates":[[[-118.52294922543119,34.050453712319495],[-118.52337138284393,34.05038912142978],[-118.52340121317769,34.05052424367338],[-118.52297908811803,34.0505888345248],[-118.52294922543119,34.050453712319495]]]}},{"type":"Feature","id":977062,"properties":{"source_object_id":977062},"geometry":{"type":"Polygon","coordinates":[[[-118.52291936284082,34.050318590107686],[-118.52334148658318,34.050253999465816],[-118.52337138284393,34.05038912142978],[-118.52294922543119,34.050453712319495],[-118.52291936284082,34.050318590107686]]]}},{"type":"Feature","id":977063,"properties":{"source_object_id":977063},"geometry":{"type":"Polygon","coordinates":[[[-118.5228895333586,34.050183467746436],[-118.52331168945379,34.05011887706619],[-118.52334148658318,34.050253999465816],[-118.52291936284082,34.050318590107686],[-118.5228895333586,34.050183467746436]]]}},{"type":"Feature","id":977064,"properties":{"source_object_id":977064},"geometry":{"type":"Polygon","coordinates":[[[-118.52285967096103,34.050048345521624],[-118.5232818262257,34.04998372746802],[-118.52331168945379,34.05011887706619],[-118.5228895333586,34.050183467746436],[-118.52285967096103,34.050048345521624]]]}},{"type":"Feature","id":977065,"properties":{"source_object_id":977065},"geometry":{"type":"Polygon","coordinates":[[[-118.52282980848827,34.049913195812096],[-118.52325199627744,34.04984860519847],[-118.5232818262257,34.04998372746802],[-118.52285967096103,34.050048345521624],[-118.52282980848827,34.049913195812096]]]}},{"type":"Feature","id":977066,"properties":{"source_object_id":977066},"geometry":{"type":"Polygon","coordinates":[[[-118.52279997929516,34.04977807343137],[-118.5232221334141,34.04971348306553],[-118.52325199627744,34.04984860519847],[-118.52282980848827,34.049913195812096],[-118.52279997929516,34.04977807343137]]]}},{"type":"Feature","id":977067,"properties":{"source_object_id":977067},"geometry":{"type":"Polygon","coordinates":[[[-118.52277011718697,34.049642951187096],[-118.52319230348681,34.049578333304844],[-118.5232221334141,34.04971348306553],[-118.52279997929516,34.04977807343137],[-118.52277011718697,34.049642951187096]]]}},{"type":"Feature","id":977068,"properties":{"source_object_id":977068},"geometry":{"type":"Polygon","coordinates":[[[-118.5227402881866,34.04950782879343],[-118.5231624078049,34.0494432113019],[-118.52319230348681,34.049578333304844],[-118.52277011718697,34.049642951187096],[-118.5227402881866,34.04950782879343]]]}},{"type":"Feature","id":977069,"properties":{"source_object_id":977069},"geometry":{"type":"Polygon","coordinates":[[[-118.52271042609958,34.04937267905791],[-118.5231326112535,34.04930808886348],[-118.5231624078049,34.0494432113019],[-118.5227402881866,34.04950782879343],[-118.52271042609958,34.04937267905791]]]}},{"type":"Feature","id":977070,"properties":{"source_object_id":977070},"geometry":{"type":"Polygon","coordinates":[[[-118.52268056428072,34.04923755679419],[-118.52310274877591,34.04917296670452],[-118.5231326112535,34.04930808886348],[-118.52271042609958,34.04937267905791],[-118.52268056428072,34.04923755679419]]]}},{"type":"Feature","id":977071,"properties":{"source_object_id":977071},"geometry":{"type":"Polygon","coordinates":[[[-118.5226462512476,34.04908214682664],[-118.52306846799623,34.049017556714425],[-118.52310274877591,34.04917296670452],[-118.52268056428072,34.04923755679419],[-118.5226462512476,34.04908214682664]]]}},{"type":"Feature","id":977072,"properties":{"source_object_id":977072},"geometry":{"type":"Polygon","coordinates":[[[-118.52206186828637,34.049171563193624],[-118.522483921053,34.049107003316784],[-118.52251823362317,34.04926238585238],[-118.52209621328197,34.04932697318517],[-118.52206186828637,34.049171563193624]]]}},{"type":"Feature","id":977073,"properties":{"source_object_id":977073},"geometry":{"type":"Polygon","coordinates":[[[-118.52209621328197,34.04932697318517],[-118.52251823362317,34.04926238585238],[-118.52254809536034,34.04939753563466],[-118.52212604117771,34.04946209573675],[-118.52209621328197,34.04932697318517]]]}},{"type":"Feature","id":977074,"properties":{"source_object_id":977074},"geometry":{"type":"Polygon","coordinates":[[[-118.52212604117771,34.04946209573675],[-118.52254809536034,34.04939753563466],[-118.52257792401102,34.04953265807511],[-118.52215590235271,34.049597245617306],[-118.52212604117771,34.04946209573675]]]}},{"type":"Feature","id":977075,"properties":{"source_object_id":977075},"geometry":{"type":"Polygon","coordinates":[[[-118.52215590235271,34.049597245617306],[-118.52257792401102,34.04953265807511],[-118.52260778576951,34.04966778036617],[-118.5221857304412,34.04973236815592],[-118.52215590235271,34.049597245617306]]]}},{"type":"Feature","id":977076,"properties":{"source_object_id":977076},"geometry":{"type":"Polygon","coordinates":[[[-118.5221857304412,34.04973236815592],[-118.52260778576951,34.04966778036617],[-118.52263764762434,34.04980290265075],[-118.52221555862607,34.04986749068805],[-118.5221857304412,34.04973236815592]]]}},{"type":"Feature","id":977077,"properties":{"source_object_id":977077},"geometry":{"type":"Polygon","coordinates":[[[-118.52221555862607,34.04986749068805],[-118.52263764762434,34.04980290265075],[-118.52266747673582,34.049938052549976],[-118.52224538690723,34.05000261321374],[-118.52221555862607,34.04986749068805]]]}},{"type":"Feature","id":977078,"properties":{"source_object_id":977078},"geometry":{"type":"Polygon","coordinates":[[[-118.52224538690723,34.05000261321374],[-118.52266747673582,34.049938052549976],[-118.52269733878359,34.050073174821556],[-118.52227524846785,34.05013776306838],[-118.52224538690723,34.05000261321374]]]}},{"type":"Feature","id":977079,"properties":{"source_object_id":977079},"geometry":{"type":"Polygon","coordinates":[[[-118.52227524846785,34.05013776306838],[-118.52269733878359,34.050073174821556],[-118.52272716791619,34.05020829722958],[-118.52230510995346,34.05027288543829],[-118.52227524846785,34.05013776306838]]]}},{"type":"Feature","id":977080,"properties":{"source_object_id":977080},"geometry":{"type":"Polygon","coordinates":[[[-118.52230510995346,34.05027288543829],[-118.52272716791619,34.05020829722958],[-118.52275703015674,34.05034341948817],[-118.52233497153549,34.05040800780171],[-118.52230510995346,34.05027288543829]]]}},{"type":"Feature","id":977081,"properties":{"source_object_id":977081},"geometry":{"type":"Polygon","coordinates":[[[-118.52233497153549,34.05040800780171],[-118.52275703015674,34.05034341948817],[-118.52278689266552,34.050478569218555],[-118.52236476736203,34.050543157922455],[-118.52233497153549,34.05040800780171]]]}},{"type":"Feature","id":977082,"properties":{"source_object_id":977082},"geometry":{"type":"Polygon","coordinates":[[[-118.52236476736203,34.050543157922455],[-118.52278689266552,34.050478569218555],[-118.52281672208726,34.0506136916071],[-118.52239462913685,34.05067828027289],[-118.52236476736203,34.050543157922455]]]}},{"type":"Feature","id":977083,"properties":{"source_object_id":977083},"geometry":{"type":"Polygon","coordinates":[[[-118.52239462913685,34.05067828027289],[-118.52281672208726,34.0506136916071],[-118.52284658478885,34.0507488413245],[-118.52242445799631,34.05081340275966],[-118.52239462913685,34.05067828027289]]]}},{"type":"Feature","id":977084,"properties":{"source_object_id":977084},"geometry":{"type":"Polygon","coordinates":[[[-118.52242445799631,34.05081340275966],[-118.52284658478885,34.0507488413245],[-118.52287644707182,34.05088390860062],[-118.52245431996401,34.050948525097084],[-118.52242445799631,34.05081340275966]]]}},{"type":"Feature","id":977085,"properties":{"source_object_id":977085},"geometry":{"type":"Polygon","coordinates":[[[-118.52245431996401,34.050948525097084],[-118.52287644707182,34.05088390860062],[-118.52290627712618,34.051019085926214],[-118.52248414935939,34.05108370252733],[-118.52245431996401,34.050948525097084]]]}},{"type":"Feature","id":977086,"properties":{"source_object_id":977086},"geometry":{"type":"Polygon","coordinates":[[[-118.52248414935939,34.05108370252733],[-118.52290627712618,34.051019085926214],[-118.5229361729574,34.051154208002885],[-118.52251397816467,34.05121877003817],[-118.52248414935939,34.05108370252733]]]}},{"type":"Feature","id":977087,"properties":{"source_object_id":977087},"geometry":{"type":"Polygon","coordinates":[[[-118.52251397816467,34.05121877003817],[-118.5229361729574,34.051154208002885],[-118.52296596984905,34.05128933050194],[-118.52254384059329,34.05135391983438],[-118.52251397816467,34.05121877003817]]]}},{"type":"Feature","id":977088,"properties":{"source_object_id":977088},"geometry":{"type":"Polygon","coordinates":[[[-118.52257710130023,34.05150458054191],[-118.52254384059329,34.05135391983438],[-118.52296596984905,34.05128933050194],[-118.5230159454453,34.05151545841885],[-118.5228695730449,34.05151651063091],[-118.52272324181034,34.051512883436196],[-118.52257710130023,34.05150458054191]]]}},{"type":"Feature","id":977089,"properties":{"source_object_id":977089},"geometry":{"type":"Polygon","coordinates":[[[-118.52212867605355,34.05145018831625],[-118.52209184908747,34.05128338526861],[-118.52251397816467,34.05121877003817],[-118.52254384059329,34.05135391983438],[-118.52257710130023,34.05150458054191],[-118.52242705085996,34.05149142364745],[-118.52227752068794,34.051473286223384],[-118.52212867605355,34.05145018831625]]]}},{"type":"Feature","id":977090,"properties":{"source_object_id":977090},"geometry":{"type":"Polygon","coordinates":[[[-118.52206202059764,34.0511482626966],[-118.52248414935939,34.05108370252733],[-118.52251397816467,34.05121877003817],[-118.52209184908747,34.05128338526861],[-118.52206202059764,34.0511482626966]]]}},{"type":"Feature","id":977091,"properties":{"source_object_id":977091},"geometry":{"type":"Polygon","coordinates":[[[-118.52203219203273,34.051013112639936],[-118.52245431996401,34.050948525097084],[-118.52248414935939,34.05108370252733],[-118.52206202059764,34.0511482626966],[-118.52203219203273,34.051013112639936]]]}},{"type":"Feature","id":977092,"properties":{"source_object_id":977092},"geometry":{"type":"Polygon","coordinates":[[[-118.52200233072372,34.05087799019767],[-118.52242445799631,34.05081340275966],[-118.52245431996401,34.050948525097084],[-118.52203219203273,34.051013112639936],[-118.52200233072372,34.05087799019767]]]}},{"type":"Feature","id":977093,"properties":{"source_object_id":977093},"geometry":{"type":"Polygon","coordinates":[[[-118.52197250252297,34.050742867606196],[-118.52239462913685,34.05067828027289],[-118.52242445799631,34.05081340275966],[-118.52200233072372,34.05087799019767],[-118.52197250252297,34.050742867606196]]]}},{"type":"Feature","id":977094,"properties":{"source_object_id":977094},"geometry":{"type":"Polygon","coordinates":[[[-118.52194267424719,34.05060771753004],[-118.52236476736203,34.050543157922455],[-118.52239462913685,34.05067828027289],[-118.52197250252297,34.050742867606196],[-118.52194267424719,34.05060771753004]]]}},{"type":"Feature","id":977095,"properties":{"source_object_id":977095},"geometry":{"type":"Polygon","coordinates":[[[-118.52191281322739,34.050472595068335],[-118.52233497153549,34.05040800780171],[-118.52236476736203,34.050543157922455],[-118.52194267424719,34.05060771753004],[-118.52191281322739,34.050472595068335]]]}},{"type":"Feature","id":977096,"properties":{"source_object_id":977096},"geometry":{"type":"Polygon","coordinates":[[[-118.52188301832744,34.05033747231472],[-118.52230510995346,34.05027288543829],[-118.52233497153549,34.05040800780171],[-118.52191281322739,34.050472595068335],[-118.52188301832744,34.05033747231472]]]}},{"type":"Feature","id":977097,"properties":{"source_object_id":977097},"geometry":{"type":"Polygon","coordinates":[[[-118.5218531903407,34.05020232221915],[-118.52227524846785,34.05013776306838],[-118.52230510995346,34.05027288543829],[-118.52188301832744,34.05033747231472],[-118.5218531903407,34.05020232221915]]]}},{"type":"Feature","id":977098,"properties":{"source_object_id":977098},"geometry":{"type":"Polygon","coordinates":[[[-118.52182332961019,34.050067199737946],[-118.52224538690723,34.05000261321374],[-118.52227524846785,34.05013776306838],[-118.5218531903407,34.05020232221915],[-118.52182332961019,34.050067199737946]]]}},{"type":"Feature","id":977099,"properties":{"source_object_id":977099},"geometry":{"type":"Polygon","coordinates":[[[-118.52179350198757,34.049932077107634],[-118.52221555862607,34.04986749068805],[-118.52224538690723,34.05000261321374],[-118.52182332961019,34.050067199737946],[-118.52179350198757,34.049932077107634]]]}},{"type":"Feature","id":977100,"properties":{"source_object_id":977100},"geometry":{"type":"Polygon","coordinates":[[[-118.52176367446131,34.04979695447082],[-118.5221857304412,34.04973236815592],[-118.52221555862607,34.04986749068805],[-118.52179350198757,34.049932077107634],[-118.52176367446131,34.04979695447082]]]}},{"type":"Feature","id":977101,"properties":{"source_object_id":977101},"geometry":{"type":"Polygon","coordinates":[[[-118.52173384686004,34.04966180434929],[-118.52215590235271,34.049597245617306],[-118.5221857304412,34.04973236815592],[-118.52176367446131,34.04979695447082],[-118.52173384686004,34.04966180434929]]]}},{"type":"Feature","id":977102,"properties":{"source_object_id":977102},"geometry":{"type":"Polygon","coordinates":[[[-118.5217040195265,34.04952668169951],[-118.52212604117771,34.04946209573675],[-118.52215590235271,34.049597245617306],[-118.52173384686004,34.04966180434929],[-118.5217040195265,34.04952668169951]]]}},{"type":"Feature","id":977103,"properties":{"source_object_id":977103},"geometry":{"type":"Polygon","coordinates":[[[-118.52167419228924,34.049391559043286],[-118.52209621328197,34.04932697318517],[-118.52212604117771,34.04946209573675],[-118.5217040195265,34.04952668169951],[-118.52167419228924,34.049391559043286]]]}},{"type":"Feature","id":977104,"properties":{"source_object_id":977104},"geometry":{"type":"Polygon","coordinates":[[[-118.52163988106227,34.049236148788616],[-118.52206186828637,34.049171563193624],[-118.52209621328197,34.04932697318517],[-118.52167419228924,34.049391559043286],[-118.52163988106227,34.049236148788616]]]}},{"type":"Feature","id":977105,"properties":{"source_object_id":977105},"geometry":{"type":"Polygon","coordinates":[[[-118.52105529805343,34.049325588618906],[-118.52147755009861,34.049260976447826],[-118.52151182802297,34.04941638689137],[-118.52108960823125,34.04948099904036],[-118.52105529805343,34.049325588618906]]]}},{"type":"Feature","id":977106,"properties":{"source_object_id":977106},"geometry":{"type":"Polygon","coordinates":[[[-118.52108960823125,34.04948099904036],[-118.52151182802297,34.04941638689137],[-118.52154168801822,34.04955150944532],[-118.52111946756764,34.04961612169915],[-118.52108960823125,34.04948099904036]]]}},{"type":"Feature","id":977107,"properties":{"source_object_id":977107},"geometry":{"type":"Polygon","coordinates":[[[-118.52111946756764,34.04961612169915],[-118.52154168801822,34.04955150944532],[-118.52157151526977,34.04968665961354],[-118.52114929398907,34.049751244493876],[-118.52111946756764,34.04961612169915]]]}},{"type":"Feature","id":977108,"properties":{"source_object_id":977108},"geometry":{"type":"Polygon","coordinates":[[[-118.52114929398907,34.049751244493876],[-118.52157151526977,34.04968665961354],[-118.52160134244637,34.049821782297094],[-118.5211791535183,34.04988636713964],[-118.52114929398907,34.049751244493876]]]}},{"type":"Feature","id":977109,"properties":{"source_object_id":977109},"geometry":{"type":"Polygon","coordinates":[[[-118.5211791535183,34.04988636713964],[-118.52160134244637,34.049821782297094],[-118.52163116971933,34.0499569049742],[-118.52120898030367,34.050021517399664],[-118.5211791535183,34.04988636713964]]]}},{"type":"Feature","id":977110,"properties":{"source_object_id":977110},"geometry":{"type":"Polygon","coordinates":[[[-118.52120898030367,34.050021517399664],[-118.52163116971933,34.0499569049742],[-118.5216609972599,34.05009205512301],[-118.52123880701414,34.05015664017497],[-118.52120898030367,34.050021517399664]]]}},{"type":"Feature","id":977111,"properties":{"source_object_id":977111},"geometry":{"type":"Polygon","coordinates":[[[-118.52123880701414,34.05015664017497],[-118.5216609972599,34.05009205512301],[-118.52169082472554,34.05022717778708],[-118.52126866683261,34.0502917628013],[-118.52123880701414,34.05015664017497]]]}},{"type":"Feature","id":977112,"properties":{"source_object_id":977112},"geometry":{"type":"Polygon","coordinates":[[[-118.52126866683261,34.0502917628013],[-118.52169082472554,34.05022717778708],[-118.52172068529921,34.05036230030211],[-118.52129849373587,34.05042688556361],[-118.52126866683261,34.0502917628013]]]}},{"type":"Feature","id":977113,"properties":{"source_object_id":977113},"geometry":{"type":"Polygon","coordinates":[[[-118.52129849373587,34.05042688556361],[-118.52172068529921,34.05036230030211],[-118.52175048011718,34.05049745057414],[-118.52132835391839,34.050562035655226],[-118.52129849373587,34.05042688556361]]]}},{"type":"Feature","id":977114,"properties":{"source_object_id":977114},"geometry":{"type":"Polygon","coordinates":[[[-118.52132835391839,34.050562035655226],[-118.52175048011718,34.05049745057414],[-118.52178034088368,34.05063257307619],[-118.5213581810144,34.050697158404574],[-118.52132835391839,34.050562035655226]]]}},{"type":"Feature","id":977115,"properties":{"source_object_id":977115},"geometry":{"type":"Polygon","coordinates":[[[-118.5213581810144,34.050697158404574],[-118.52178034088368,34.05063257307619],[-118.52181016890611,34.05076772319263],[-118.52138804121853,34.050832281004936],[-118.5213581810144,34.050697158404574]]]}},{"type":"Feature","id":977116,"properties":{"source_object_id":977116},"geometry":{"type":"Polygon","coordinates":[[[-118.52138804121853,34.050832281004936],[-118.52181016890611,34.05076772319263],[-118.52183999685357,34.05090284582433],[-118.52141786850723,34.050967403741325],[-118.52138804121853,34.050832281004936]]]}},{"type":"Feature","id":977117,"properties":{"source_object_id":977117},"geometry":{"type":"Polygon","coordinates":[[[-118.52141786850723,34.050967403741325],[-118.52183999685357,34.05090284582433],[-118.52186982489734,34.051037968449535],[-118.52144772924679,34.05110258128516],[-118.52141786850723,34.050967403741325]]]}},{"type":"Feature","id":977118,"properties":{"source_object_id":977118},"geometry":{"type":"Polygon","coordinates":[[[-118.52144772924679,34.05110258128516],[-118.52186982489734,34.051037968449535],[-118.5218996530374,34.05117309106828],[-118.52147755672829,34.05123770400863],[-118.52144772924679,34.05110258128516]]]}},{"type":"Feature","id":977119,"properties":{"source_object_id":977119},"geometry":{"type":"Polygon","coordinates":[[[-118.52191498482208,34.051408162417914],[-118.52170675768586,34.05136488216377],[-118.52149739581223,34.05132747459065],[-118.52147755672829,34.05123770400863],[-118.5218996530374,34.05117309106828],[-118.52195339802027,34.05141651487633],[-118.52191498482208,34.051408162417914]]]}},{"type":"Feature","id":977120,"properties":{"source_object_id":977120},"geometry":{"type":"Polygon","coordinates":[[[-118.52122548051338,34.05128707284841],[-118.52127334412859,34.05098951624472],[-118.52141786850723,34.050967403741325],[-118.52144772924679,34.05110258128516],[-118.52147755672829,34.05123770400863],[-118.52149739581223,34.05132747459065],[-118.52136162772634,34.051305997902666],[-118.52122548051338,34.05128707284841]]]}},{"type":"Feature","id":977121,"properties":{"source_object_id":977121},"geometry":{"type":"Polygon","coordinates":[[[-118.52111295195755,34.05127318698832],[-118.52104740865708,34.05126585813178],[-118.52099573985177,34.05103201513943],[-118.52127334412859,34.05098951624472],[-118.52122548051338,34.05128707284841],[-118.52111295195755,34.05127318698832]]]}},{"type":"Feature","id":977122,"properties":{"source_object_id":977122},"geometry":{"type":"Polygon","coordinates":[[[-118.52096591305066,34.050896864820096],[-118.52138804121853,34.050832281004936],[-118.52141786850723,34.050967403741325],[-118.52127334412859,34.05098951624472],[-118.52099573985177,34.05103201513943],[-118.52096591305066,34.050896864820096]]]}},{"type":"Feature","id":977123,"properties":{"source_object_id":977123},"geometry":{"type":"Polygon","coordinates":[[[-118.52093605350514,34.050761742114965],[-118.5213581810144,34.050697158404574],[-118.52138804121853,34.050832281004936],[-118.52096591305066,34.050896864820096],[-118.52093605350514,34.050761742114965]]]}},{"type":"Feature","id":977124,"properties":{"source_object_id":977124},"geometry":{"type":"Polygon","coordinates":[[[-118.52090619405612,34.05062661940328],[-118.52132835391839,34.050562035655226],[-118.5213581810144,34.050697158404574],[-118.52093605350514,34.050761742114965],[-118.52090619405612,34.05062661940328]]]}},{"type":"Feature","id":977125,"properties":{"source_object_id":977125},"geometry":{"type":"Polygon","coordinates":[[[-118.52087633470349,34.050491496685154],[-118.52129849373587,34.05042688556361],[-118.52132835391839,34.050562035655226],[-118.52090619405612,34.05062661940328],[-118.52087633470349,34.050491496685154]]]}},{"type":"Feature","id":977126,"properties":{"source_object_id":977126},"geometry":{"type":"Polygon","coordinates":[[[-118.5208464752763,34.05035634648226],[-118.52126866683261,34.0502917628013],[-118.52129849373587,34.05042688556361],[-118.52087633470349,34.050491496685154],[-118.5208464752763,34.05035634648226]]]}},{"type":"Feature","id":977127,"properties":{"source_object_id":977127},"geometry":{"type":"Polygon","coordinates":[[[-118.52081664912824,34.05022122360873],[-118.52123880701414,34.05015664017497],[-118.52126866683261,34.0502917628013],[-118.5208464752763,34.05035634648226],[-118.52081664912824,34.05022122360873]]]}},{"type":"Feature","id":977128,"properties":{"source_object_id":977128},"geometry":{"type":"Polygon","coordinates":[[[-118.52078679006488,34.050086100871106],[-118.52120898030367,34.050021517399664],[-118.52123880701414,34.05015664017497],[-118.52081664912824,34.05022122360873],[-118.52078679006488,34.050086100871106]]]}},{"type":"Feature","id":977129,"properties":{"source_object_id":977129},"geometry":{"type":"Polygon","coordinates":[[[-118.52075693109806,34.04995097812699],[-118.5211791535183,34.04988636713964],[-118.52120898030367,34.050021517399664],[-118.52078679006488,34.050086100871106],[-118.52075693109806,34.04995097812699]]]}},{"type":"Feature","id":977130,"properties":{"source_object_id":977130},"geometry":{"type":"Polygon","coordinates":[[[-118.5207270722276,34.049815855376394],[-118.52114929398907,34.049751244493876],[-118.5211791535183,34.04988636713964],[-118.52075693109806,34.04995097812699],[-118.5207270722276,34.049815855376394]]]}},{"type":"Feature","id":977131,"properties":{"source_object_id":977131},"geometry":{"type":"Polygon","coordinates":[[[-118.520697246294,34.04968070499866],[-118.52111946756764,34.04961612169915],[-118.52114929398907,34.049751244493876],[-118.5207270722276,34.049815855376394],[-118.520697246294,34.04968070499866]]]}},{"type":"Feature","id":977132,"properties":{"source_object_id":977132},"geometry":{"type":"Polygon","coordinates":[[[-118.52066738761646,34.0495455822351],[-118.52108960823125,34.04948099904036],[-118.52111946756764,34.04961612169915],[-118.520697246294,34.04968070499866],[-118.52066738761646,34.0495455822351]]]}},{"type":"Feature","id":977133,"properties":{"source_object_id":977133},"geometry":{"type":"Polygon","coordinates":[[[-118.52063304535605,34.049390199313734],[-118.52105529805343,34.049325588618906],[-118.52108960823125,34.04948099904036],[-118.52066738761646,34.0495455822351],[-118.52063304535605,34.049390199313734]]]}},{"type":"Feature","id":977134,"properties":{"source_object_id":977134},"geometry":{"type":"Polygon","coordinates":[[[-118.52004865809187,34.04947960593946],[-118.5204707137948,34.04941502561965],[-118.52050502292347,34.04957043620786],[-118.5200829662923,34.049634989169775],[-118.52004865809187,34.04947960593946]]]}},{"type":"Feature","id":977135,"properties":{"source_object_id":977135},"geometry":{"type":"Polygon","coordinates":[[[-118.5200829662923,34.049634989169775],[-118.52050502292347,34.04957043620786],[-118.52053488134769,34.0497055590118],[-118.52011282422875,34.049770139556735],[-118.5200829662923,34.049634989169775]]]}},{"type":"Feature","id":977136,"properties":{"source_object_id":977136},"geometry":{"type":"Polygon","coordinates":[[[-118.52011282422875,34.049770139556735],[-118.52053488134769,34.0497055590118],[-118.52056473986839,34.0498406818092],[-118.52014268209089,34.0499052624589],[-118.52011282422875,34.049770139556735]]]}},{"type":"Feature","id":977137,"properties":{"source_object_id":977137},"geometry":{"type":"Polygon","coordinates":[[[-118.52014268209089,34.0499052624589],[-118.52056473986839,34.0498406818092],[-118.52059459848554,34.049975804600145],[-118.5201725070379,34.05004038549683],[-118.52014268209089,34.0499052624589]]]}},{"type":"Feature","id":977138,"properties":{"source_object_id":977138},"geometry":{"type":"Polygon","coordinates":[[[-118.5201725070379,34.05004038549683],[-118.52059459848554,34.049975804600145],[-118.52062445719909,34.05011092738457],[-118.52020236509283,34.05017550838604],[-118.5201725070379,34.05004038549683]]]}},{"type":"Feature","id":977139,"properties":{"source_object_id":977139},"geometry":{"type":"Polygon","coordinates":[[[-118.52020236509283,34.05017550838604],[-118.52062445719909,34.05011092738457],[-118.52065428316847,34.05024607778305],[-118.52023222324424,34.05031063126875],[-118.52020236509283,34.05017550838604]]]}},{"type":"Feature","id":977140,"properties":{"source_object_id":977140},"geometry":{"type":"Polygon","coordinates":[[[-118.52023222324424,34.05031063126875],[-118.52065428316847,34.05024607778305],[-118.52068414207488,34.050381200554476],[-118.52026204865122,34.05044578176544],[-118.52023222324424,34.05031063126875]]]}},{"type":"Feature","id":977141,"properties":{"source_object_id":977141},"geometry":{"type":"Polygon","coordinates":[[[-118.52026204865122,34.05044578176544],[-118.52068414207488,34.050381200554476],[-118.52071400107774,34.05051632331942],[-118.52029190699541,34.05058090463516],[-118.52026204865122,34.05044578176544]]]}},{"type":"Feature","id":977142,"properties":{"source_object_id":977142},"geometry":{"type":"Polygon","coordinates":[[[-118.52029190699541,34.05058090463516],[-118.52071400107774,34.05051632331942],[-118.52074386017706,34.050651446077914],[-118.52032176543608,34.05071602749845],[-118.52029190699541,34.05058090463516]]]}},{"type":"Feature","id":977143,"properties":{"source_object_id":977143},"geometry":{"type":"Polygon","coordinates":[[[-118.52032176543608,34.05071602749845],[-118.52074386017706,34.050651446077914],[-118.52077371954378,34.05078659630809],[-118.52035162397323,34.050851150355186],[-118.52032176543608,34.05071602749845]]]}},{"type":"Feature","id":977144,"properties":{"source_object_id":977144},"geometry":{"type":"Polygon","coordinates":[[[-118.52035162397323,34.050851150355186],[-118.52077371954378,34.05078659630809],[-118.52080354582407,34.05092171919591],[-118.52038144976574,34.05098630082593],[-118.52035162397323,34.050851150355186]]]}},{"type":"Feature","id":977145,"properties":{"source_object_id":977145},"geometry":{"type":"Polygon","coordinates":[[[-118.52038144976574,34.05098630082593],[-118.52080354582407,34.05092171919591],[-118.52083340521268,34.051056841934866],[-118.5204113084957,34.05112142366968],[-118.52038144976574,34.05098630082593]]]}},{"type":"Feature","id":977146,"properties":{"source_object_id":977146},"geometry":{"type":"Polygon","coordinates":[[[-118.52043389849332,34.05122374045764],[-118.5204113084957,34.05112142366968],[-118.52083340521268,34.051056841934866],[-118.52087593536753,34.05124928611735],[-118.52065509829055,34.051233375069046],[-118.52043389849332,34.05122374045764]]]}},{"type":"Feature","id":977147,"properties":{"source_object_id":977147},"geometry":{"type":"Polygon","coordinates":[[[-118.51999719369496,34.0512221318871],[-118.51995935288501,34.05105085350251],[-118.52038144976574,34.05098630082593],[-118.5204113084957,34.05112142366968],[-118.52043389849332,34.05122374045764],[-118.52021555739178,34.05121986902019],[-118.51999719369496,34.0512221318871]]]}},{"type":"Feature","id":977148,"properties":{"source_object_id":977148},"geometry":{"type":"Polygon","coordinates":[[[-118.51992952792206,34.05091573040534],[-118.52035162397323,34.050851150355186],[-118.52038144976574,34.05098630082593],[-118.51995935288501,34.05105085350251],[-118.51992952792206,34.05091573040534]]]}},{"type":"Feature","id":977149,"properties":{"source_object_id":977149},"geometry":{"type":"Polygon","coordinates":[[[-118.51989967004354,34.05078060744381],[-118.52032176543608,34.05071602749845],[-118.52035162397323,34.050851150355186],[-118.51992952792206,34.05091573040534],[-118.51989967004354,34.05078060744381]]]}},{"type":"Feature","id":977150,"properties":{"source_object_id":977150},"geometry":{"type":"Polygon","coordinates":[[[-118.51986981226155,34.050645484475794],[-118.52029190699541,34.05058090463516],[-118.52032176543608,34.05071602749845],[-118.51989967004354,34.05078060744381],[-118.51986981226155,34.050645484475794]]]}},{"type":"Feature","id":977151,"properties":{"source_object_id":977151},"geometry":{"type":"Polygon","coordinates":[[[-118.51983998741697,34.050510333880894],[-118.52026204865122,34.05044578176544],[-118.52029190699541,34.05058090463516],[-118.51986981226155,34.050645484475794],[-118.51983998741697,34.050510333880894]]]}},{"type":"Feature","id":977152,"properties":{"source_object_id":977152},"geometry":{"type":"Polygon","coordinates":[[[-118.51981012982775,34.050375210899894],[-118.52023222324424,34.05031063126875],[-118.52026204865122,34.05044578176544],[-118.51983998741697,34.050510333880894],[-118.51981012982775,34.050375210899894]]]}},{"type":"Feature","id":977153,"properties":{"source_object_id":977153},"geometry":{"type":"Polygon","coordinates":[[[-118.51978027233503,34.05024008791235],[-118.52020236509283,34.05017550838604],[-118.52023222324424,34.05031063126875],[-118.51981012982775,34.050375210899894],[-118.51978027233503,34.05024008791235]]]}},{"type":"Feature","id":977154,"properties":{"source_object_id":977154},"geometry":{"type":"Polygon","coordinates":[[[-118.5197504479503,34.050104964776295],[-118.5201725070379,34.05004038549683],[-118.52020236509283,34.05017550838604],[-118.51978027233503,34.05024008791235],[-118.5197504479503,34.050104964776295]]]}},{"type":"Feature","id":977155,"properties":{"source_object_id":977155},"geometry":{"type":"Polygon","coordinates":[[[-118.51972059065032,34.049969841775805],[-118.52014268209089,34.0499052624589],[-118.5201725070379,34.05004038549683],[-118.5197504479503,34.050104964776295],[-118.51972059065032,34.049969841775805]]]}},{"type":"Feature","id":977156,"properties":{"source_object_id":977156},"geometry":{"type":"Polygon","coordinates":[[[-118.51969073327616,34.04983469129058],[-118.52011282422875,34.049770139556735],[-118.52014268209089,34.0499052624589],[-118.51972059065032,34.049969841775805],[-118.51969073327616,34.04983469129058]]]}},{"type":"Feature","id":977157,"properties":{"source_object_id":977157},"geometry":{"type":"Polygon","coordinates":[[[-118.51966090918054,34.04969956813504],[-118.5200829662923,34.049634989169775],[-118.52011282422875,34.049770139556735],[-118.51969073327616,34.04983469129058],[-118.51966090918054,34.04969956813504]]]}},{"type":"Feature","id":977158,"properties":{"source_object_id":977158},"geometry":{"type":"Polygon","coordinates":[[[-118.51962656855545,34.049544157448075],[-118.52004865809187,34.04947960593946],[-118.5200829662923,34.049634989169775],[-118.51966090918054,34.04969956813504],[-118.51962656855545,34.049544157448075]]]}},{"type":"Feature","id":977160,"properties":{"source_object_id":977160},"geometry":{"type":"Polygon","coordinates":[[[-118.51907648570534,34.049788970199465],[-118.51949854371918,34.04972439327653],[-118.51952840074355,34.04985954380859],[-118.51910630888901,34.04992409349991],[-118.51907648570534,34.049788970199465]]]}},{"type":"Feature","id":977161,"properties":{"source_object_id":977161},"geometry":{"type":"Polygon","coordinates":[[[-118.51910630888901,34.04992409349991],[-118.51952840074355,34.04985954380859],[-118.51955825769375,34.04999466685583],[-118.51913616535103,34.050059244130225],[-118.51910630888901,34.04992409349991]]]}},{"type":"Feature","id":977162,"properties":{"source_object_id":977162},"geometry":{"type":"Polygon","coordinates":[[[-118.51913616535103,34.050059244130225],[-118.51955825769375,34.04999466685583],[-118.51958808172876,34.05012979003864],[-118.51916602173905,34.05019436727581],[-118.51913616535103,34.050059244130225]]]}},{"type":"Feature","id":977163,"properties":{"source_object_id":977163},"geometry":{"type":"Polygon","coordinates":[[[-118.51916602173905,34.05019436727581],[-118.51958808172876,34.05012979003864],[-118.51961793887178,34.05026491307297],[-118.51919584521183,34.05032949055682],[-118.51916602173905,34.05019436727581]]]}},{"type":"Feature","id":977164,"properties":{"source_object_id":977164},"geometry":{"type":"Polygon","coordinates":[[[-118.51919584521183,34.05032949055682],[-118.51961793887178,34.05026491307297],[-118.51964779628187,34.05040006357903],[-118.51922573480435,34.05046461354749],[-118.51919584521183,34.05032949055682]]]}},{"type":"Feature","id":977165,"properties":{"source_object_id":977165},"geometry":{"type":"Polygon","coordinates":[[[-118.51922573480435,34.05046461354749],[-118.51964779628187,34.05040006357903],[-118.51967762060603,34.05053518674243],[-118.51925552562861,34.05059976443572],[-118.51922573480435,34.05046461354749]]]}},{"type":"Feature","id":977166,"properties":{"source_object_id":977166},"geometry":{"type":"Polygon","coordinates":[[[-118.51925552562861,34.05059976443572],[-118.51967762060603,34.05053518674243],[-118.51970747803833,34.05067030975723],[-118.51928538240229,34.05073488755531],[-118.51925552562861,34.05059976443572]]]}},{"type":"Feature","id":977167,"properties":{"source_object_id":977167},"geometry":{"type":"Polygon","coordinates":[[[-118.51928538240229,34.05073488755531],[-118.51970747803833,34.05067030975723],[-118.51973733556703,34.050805432765564],[-118.51931520626052,34.05087001081041],[-118.51928538240229,34.05073488755531]]]}},{"type":"Feature","id":977168,"properties":{"source_object_id":977168},"geometry":{"type":"Polygon","coordinates":[[[-118.51931520626052,34.05087001081041],[-118.51973733556703,34.050805432765564],[-118.519767160351,34.050940583387764],[-118.51934506322695,34.05100513391701],[-118.51931520626052,34.05087001081041]]]}},{"type":"Feature","id":977181,"properties":{"source_object_id":977181},"geometry":{"type":"Polygon","coordinates":[[[-118.51934506322695,34.05100513391701],[-118.519767160351,34.050940583387764],[-118.51979701807257,34.05107570638309],[-118.51937492046044,34.051140284495425],[-118.51934506322695,34.05100513391701]]]}},{"type":"Feature","id":977182,"properties":{"source_object_id":977182},"geometry":{"type":"Polygon","coordinates":[[[-118.51937492046044,34.051140284495425],[-118.51979701807257,34.05107570638309],[-118.5198306127206,34.051227795292455],[-118.51961561293034,34.05124024246452],[-118.51940104223866,34.051258661481185],[-118.51937492046044,34.051140284495425]]]}},{"type":"Feature","id":977289,"properties":{"source_object_id":977289},"geometry":{"type":"Polygon","coordinates":[[[-118.51998452643642,34.049189237019434],[-118.52040658089501,34.049124684403004],[-118.5204348772412,34.04925286177901],[-118.52001282215791,34.04931741449476],[-118.51998452643642,34.049189237019434]]]}},{"type":"Feature","id":977290,"properties":{"source_object_id":977290},"geometry":{"type":"Polygon","coordinates":[[[-118.51955646060577,34.049226802193196],[-118.51997858143577,34.049162223310205],[-118.51998452643642,34.049189237019434],[-118.52001282215791,34.04931741449476],[-118.51959076676462,34.04938202069207],[-118.51955646060577,34.049226802193196]]]}},{"type":"Feature","id":977291,"properties":{"source_object_id":977291},"geometry":{"type":"Polygon","coordinates":[[[-118.51952663677307,34.04909165153029],[-118.51994869109268,34.04902710051449],[-118.51996064725247,34.0490811551292],[-118.51997858143577,34.049162223310205],[-118.51955646060577,34.049226802193196],[-118.51952663677307,34.04909165153029]]]}},{"type":"Feature","id":977317,"properties":{"source_object_id":977317},"geometry":{"type":"Polygon","coordinates":[[[-118.52056891191201,34.04909985818363],[-118.52099116319366,34.049035247713974],[-118.52101949341638,34.04916342480997],[-118.52059724150975,34.04922803537912],[-118.52056891191201,34.04909985818363]]]}}]}
