{"type":"FeatureCollection","display_extent_wgs84":[-118.52345,34.0492,-118.5195,34.0517],"features":[{"type":"Feature","id":32020,"properties":{"OBJECTID":32020,"FullName":"Bestor Blvd","Source":"CAMS","SourceID":"0300FEE6-1910-400E-84DB-440C762AF811","UpdateDate":1429331240000},"geometry":{"type":"LineString","coordinates":[[-118.523118234432,34.0515968407947],[-118.523435233994,34.0515698400149],[-118.523707234149,34.0515318400466],[-118.523910234183,34.0514928406198],[-118.524124233569,34.0514418405005]]}},{"type":"Feature","id":53772,"properties":{"OBJECTID":53772,"FullName":"Bestor Blvd","Source":"CAMS","SourceID":"BF346294-3C85-4D7E-9D08-3ECBDD1C1848","UpdateDate":1429331240000},"geometry":{"type":"LineString","coordinates":[[-118.518913233005,34.05140484059],[-118.519288233677,34.0513538404804],[-118.51951723264,34.0513308408405],[-118.519931234137,34.0513058408255]]}},{"type":"Feature","id":88910,"properties":{"OBJECTID":88910,"FullName":"Iliff St","Source":"CAMS","SourceID":"583FBB87-430C-4383-A283-11D445B14CD5","UpdateDate":1429331240000},"geometry":{"type":"LineString","coordinates":[[-118.519527233143,34.0494758401226],[-118.519931234137,34.0513058408255]]}},{"type":"Feature","id":104311,"properties":{"OBJECTID":104311,"FullName":"Albright St","Source":"CAMS","SourceID":"A13117B5-2399-4CB1-84CD-E9C11DDAA475","UpdateDate":1429331240000},"geometry":{"type":"LineString","coordinates":[[-118.520534232141,34.0493218399323],[-118.52154123398,34.0491678394314]]}},{"type":"Feature","id":109494,"properties":{"OBJECTID":109494,"FullName":"Albright St","Source":"CAMS","SourceID":"DFD1161E-351A-4167-BC9D-82C17CF96234","UpdateDate":1429331240000},"geometry":{"type":"LineString","coordinates":[[-118.518521233421,34.0496298402314],[-118.519527233143,34.0494758401226]]}},{"type":"Feature","id":169268,"properties":{"OBJECTID":169268,"FullName":"Hartzell St","Source":"CAMS","SourceID":"81ECE31E-A0F2-425A-A9B9-4587FF85EF8A","UpdateDate":1429331240000},"geometry":{"type":"LineString","coordinates":[[-118.520534232141,34.0493218399323],[-118.52098023457,34.0513418403962]]}},{"type":"Feature","id":211227,"properties":{"OBJECTID":211227,"FullName":"Bestor Blvd","Source":"CAMS","SourceID":"6CCB2027-9868-43B0-AFDC-0B34744FB8DF","UpdateDate":1429331240000},"geometry":{"type":"LineString","coordinates":[[-118.522060233855,34.0515218403906],[-118.522295232726,34.051558839451],[-118.522569233399,34.0515868396101],[-118.522846233036,34.0515988400654],[-118.523118234432,34.0515968407947]]}},{"type":"Feature","id":215558,"properties":{"OBJECTID":215558,"FullName":"Whitfield Ave","Source":"CAMS","SourceID":"28178F0F-D10E-4BC5-99A0-D8B90301C17D","UpdateDate":1429331240000},"geometry":{"type":"LineString","coordinates":[[-118.520084234374,34.0517948404818],[-118.520495233779,34.0518038395069],[-118.520704233417,34.0518148397308],[-118.521017234342,34.0518448407406],[-118.521327232887,34.0518878405773],[-118.521635234315,34.0519438394302],[-118.521968233373,34.0520118407358],[-118.522203234916,34.0520478392615],[-118.522518232943,34.052079840889],[-118.522661234173,34.0520868409662],[-118.522751234199,34.0520778408032],[-118.522831233597,34.0520568402041],[-118.522911234277,34.0520218404405],[-118.522982233141,34.0519738397404],[-118.523036233543,34.0519218403688],[-118.523082234243,34.0518558395552],[-118.523110233408,34.0517908398808],[-118.523125233399,34.05171584074],[-118.523118234432,34.0515968407947]]}},{"type":"Feature","id":220111,"properties":{"OBJECTID":220111,"FullName":"Bestor Blvd","Source":"CAMS","SourceID":"012FC810-7C0C-44DB-8B0B-788938E4B2C9","UpdateDate":1429331240000},"geometry":{"type":"LineString","coordinates":[[-118.52098023457,34.0513418403962],[-118.521327234286,34.051384840161],[-118.521666234138,34.0514418401381],[-118.522060233855,34.0515218403906]]}},{"type":"Feature","id":236925,"properties":{"OBJECTID":236925,"FullName":"Iliff St","Source":"CAMS","SourceID":"1E01BC17-3053-4344-9FBE-ABF8D6FA19F0","UpdateDate":1429331240000},"geometry":{"type":"LineString","coordinates":[[-118.519127233124,34.0476648390763],[-118.519527233143,34.0494758401226]]}},{"type":"Feature","id":254421,"properties":{"OBJECTID":254421,"FullName":"Albright St","Source":"CAMS","SourceID":"D91611E1-FB42-452E-B3F2-E8EFA2F934F2","UpdateDate":1429331240000},"geometry":{"type":"LineString","coordinates":[[-118.519527233143,34.0494758401226],[-118.520534232141,34.0493218399323]]}},{"type":"Feature","id":297800,"properties":{"OBJECTID":297800,"FullName":"Hartzell St","Source":"CAMS","SourceID":"64BE4707-BEDC-4AA7-ACF0-8E17FEC7FDB6","UpdateDate":1429331240000},"geometry":{"type":"LineString","coordinates":[[-118.520134233794,34.0475108403345],[-118.520534232141,34.0493218399323]]}},{"type":"Feature","id":334913,"properties":{"OBJECTID":334913,"FullName":"Galloway St","Source":"CAMS","SourceID":"F931640A-586C-4EE2-BC89-F4DD34145086","UpdateDate":1429331240000},"geometry":{"type":"LineString","coordinates":[[-118.52154123398,34.0491678394314],[-118.522060233855,34.0515218403906]]}},{"type":"Feature","id":358308,"properties":{"OBJECTID":358308,"FullName":"Fiske St","Source":"CAMS","SourceID":"6B0782A5-D6F4-4579-B756-BB7BAC9A4391","UpdateDate":1429331240000},"geometry":{"type":"LineString","coordinates":[[-118.522547233583,34.0490138402644],[-118.523118234432,34.0515968407947]]}},{"type":"Feature","id":374317,"properties":{"OBJECTID":374317,"FullName":"Mc Kendree Ave","Source":"CAMS","SourceID":"288B4956-236C-4B6C-8835-2308EB5D7994","UpdateDate":1429331240000},"geometry":{"type":"LineString","coordinates":[[-118.519931234137,34.0513058408255],[-118.519989232272,34.051533840135],[-118.520084234374,34.0517948404818]]}},{"type":"Feature","id":374425,"properties":{"OBJECTID":374425,"FullName":"Bestor Blvd","Source":"CAMS","SourceID":"2A45385F-E38F-4ABF-9426-2CDAA755B45D","UpdateDate":1429331240000},"geometry":{"type":"LineString","coordinates":[[-118.519931234137,34.0513058408255],[-118.520295233368,34.0513028405349],[-118.520641233829,34.0513148408308],[-118.52098023457,34.0513418403962]]}}]}
