{"type":"FeatureCollection","display_extent_wgs84":[-118.5223,34.05015,-118.5198,34.0517],"features":[{"type":"Feature","id":976529,"properties":{"source_object_id":976529},"geometry":{"type":"Polygon","coordinates":[[[-118.519601262734,34.05140703845593],[-118.51964043000794,34.05140395715106],[-118.51975362020089,34.05139682011976],[-118.519866919655,34.05139133125043],[-118.51989238198693,34.051493560498336],[-118.51992301078938,34.05159436241268],[-118.51995872678096,34.05169347607178],[-118.51996006657353,34.05169690860985],[-118.51996060753609,34.05170399906575],[-118.51995998433227,34.05171108276693],[-118.51995821366553,34.051717969852284],[-118.5199553429942,34.0517244757305],[-118.51995144925951,34.0517304260276],[-118.51994663682343,34.05173566126059],[-118.5199410346714,34.051740041111955],[-118.51993479295525,34.05174344819062],[-118.51992807896879,34.05174579117826],[-118.5199210726638,34.05174700727688],[-118.519913961827,34.051747063891966],[-118.51977691088045,34.0517535186484],[-118.5196400172007,34.051762724422204],[-118.519601262734,34.05140703845593]]]}},{"type":"Feature","id":976546,"properties":{"source_object_id":976546},"geometry":{"type":"Polygon","coordinates":[[[-118.52165065304494,34.05189051640586],[-118.52154828432067,34.051870156978524],[-118.52164432847259,34.0515221055918],[-118.52175403474516,34.051543917098236],[-118.52183089271144,34.051560374658635],[-118.52172281705225,34.05190595011185],[-118.52165065304494,34.05189051640586]]]}},{"type":"Feature","id":976547,"properties":{"source_object_id":976547},"geometry":{"type":"Polygon","coordinates":[[[-118.52144400846969,34.05185101477464],[-118.52136234747317,34.05183729812202],[-118.52144527164585,34.05148691286896],[-118.52153274895852,34.05150164854594],[-118.52164432847259,34.0515221055918],[-118.52154828432067,34.051870156978524],[-118.52144400846969,34.05185101477464]]]}},{"type":"Feature","id":976548,"properties":{"source_object_id":976548},"geometry":{"type":"Polygon","coordinates":[[[-118.52134007323353,34.05183354722804],[-118.52123581716228,34.051817564841826],[-118.52118030761041,34.05180994543573],[-118.52125034512376,34.05145758249183],[-118.5213098858649,34.051465816478895],[-118.52142151040883,34.05148292110052],[-118.52144527164585,34.05148691286896],[-118.52136234747317,34.05183729812202],[-118.52134007323353,34.05183354722804]]]}},{"type":"Feature","id":976549,"properties":{"source_object_id":976549},"geometry":{"type":"Polygon","coordinates":[[[-118.52113124059288,34.051803122571584],[-118.52102634317741,34.05179016545992],[-118.52099737124333,34.05178704793769],[-118.52105449167661,34.05143311957896],[-118.52108564382975,34.051436474990105],[-118.52119790833255,34.05145033453733],[-118.52125034512376,34.05145758249183],[-118.52118030761041,34.05180994543573],[-118.52113124059288,34.051803122571584]]]}},{"type":"Feature","id":976550,"properties":{"source_object_id":976550},"geometry":{"type":"Polygon","coordinates":[[[-118.52092122446048,34.05177877551366],[-118.52081588409415,34.05176889777571],[-118.52081367124764,34.05176874244539],[-118.52085784314842,34.05141349607822],[-118.52086028724133,34.05141367788923],[-118.52097309252115,34.05142426531451],[-118.52105449167661,34.05143311957896],[-118.52099737124333,34.05178704793769],[-118.52092122446048,34.05177877551366]]]}},{"type":"Feature","id":976551,"properties":{"source_object_id":976551},"geometry":{"type":"Polygon","coordinates":[[[-118.52071032224384,34.05176055972365],[-118.52062934169439,34.05175535812499],[-118.52066050127775,34.05139915121035],[-118.52074729417897,34.05140473990705],[-118.52085784314842,34.05141349607822],[-118.52081367124764,34.05176874244539],[-118.52071032224384,34.05176055972365]]]}},{"type":"Feature","id":976552,"properties":{"source_object_id":976552},"geometry":{"type":"Polygon","coordinates":[[[-118.52060463794044,34.05175376093001],[-118.52049879799505,34.05174847405845],[-118.52044467761036,34.05174656395424],[-118.52046276108531,34.05138975395267],[-118.52052084371653,34.051391811842926],[-118.5206341463396,34.05139745122506],[-118.52066050127775,34.05139915121035],[-118.52062934169439,34.05175535812499],[-118.52060463794044,34.05175376093001]]]}},{"type":"Feature","id":976553,"properties":{"source_object_id":976553},"geometry":{"type":"Polygon","coordinates":[[[-118.52039290178035,34.05174475363835],[-118.52028691610745,34.0517425723335],[-118.52025974464793,34.051742304690706],[-118.52026478725494,34.05138524863557],[-118.52029397182346,34.05138542516632],[-118.52040741914429,34.0513877941396],[-118.52046276108531,34.05138975395267],[-118.52044467761036,34.05174656395424],[-118.52039290178035,34.05174475363835]]]}},{"type":"Feature","id":976554,"properties":{"source_object_id":976554},"geometry":{"type":"Polygon","coordinates":[[[-118.52021870651336,34.051741849467405],[-118.52020304169726,34.051740582124125],[-118.5201877767987,34.05173684374277],[-118.52017329907339,34.051730729162465],[-118.52015997580713,34.05172239350417],[-118.52014814499829,34.05171204823545],[-118.520138106783,34.05169995580574],[-118.52013011582103,34.05168642298823],[-118.52012864142114,34.05168258056461],[-118.52009164963194,34.05158556773301],[-118.52005997229746,34.05148669190965],[-118.52003370261168,34.05138624398497],[-118.52026478725494,34.05138524863557],[-118.52025974464793,34.051742304690706],[-118.52022326305571,34.05174196723326],[-118.52021870651336,34.051741849467405]]]}},{"type":"Feature","id":976555,"properties":{"source_object_id":976555},"geometry":{"type":"Polygon","coordinates":[[[-118.52194732711169,34.051951556821365],[-118.52203923854606,34.05160278104228],[-118.52214449959939,34.05162092170213],[-118.5222501713669,34.05163649252234],[-118.52218059991564,34.05198882657244],[-118.52206373400568,34.05197162819623],[-118.52194732711169,34.051951556821365]]]}},{"type":"Feature","id":976556,"properties":{"source_object_id":976556},"geometry":{"type":"Polygon","coordinates":[[[-118.52172281705225,34.05190595011185],[-118.52183089271144,34.051560374658635],[-118.52186388320766,34.05156767546341],[-118.52203923854606,34.05160278104228],[-118.52194732711169,34.051951556821365],[-118.52175326836257,34.05191269172865],[-118.52172281705225,34.05190595011185]]]}},{"type":"Feature","id":976578,"properties":{"source_object_id":976578},"geometry":{"type":"Polygon","coordinates":[[[-118.52218059991564,34.05198882657244],[-118.5222501713669,34.05163649252234],[-118.52234807593635,34.05164904104224],[-118.52244624643002,34.05165930380226],[-118.5223972579114,34.05201402203985],[-118.52228878356786,34.05200267414603],[-118.52218059991564,34.05198882657244]]]}},{"type":"Feature","id":977079,"properties":{"source_object_id":977079},"geometry":{"type":"Polygon","coordinates":[[[-118.52227524846785,34.05013776306838],[-118.52269733878359,34.050073174821556],[-118.52272716791619,34.05020829722958],[-118.52230510995346,34.05027288543829],[-118.52227524846785,34.05013776306838]]]}},{"type":"Feature","id":977089,"properties":{"source_object_id":977089},"geometry":{"type":"Polygon","coordinates":[[[-118.52212867605355,34.05145018831625],[-118.52209184908747,34.05128338526861],[-118.52251397816467,34.05121877003817],[-118.52254384059329,34.05135391983438],[-118.52257710130023,34.05150458054191],[-118.52242705085996,34.05149142364745],[-118.52227752068794,34.051473286223384],[-118.52212867605355,34.05145018831625]]]}},{"type":"Feature","id":977090,"properties":{"source_object_id":977090},"geometry":{"type":"Polygon","coordinates":[[[-118.52206202059764,34.0511482626966],[-118.52248414935939,34.05108370252733],[-118.52251397816467,34.05121877003817],[-118.52209184908747,34.05128338526861],[-118.52206202059764,34.0511482626966]]]}},{"type":"Feature","id":977091,"properties":{"source_object_id":977091},"geometry":{"type":"Polygon","coordinates":[[[-118.52203219203273,34.051013112639936],[-118.52245431996401,34.050948525097084],[-118.52248414935939,34.05108370252733],[-118.52206202059764,34.0511482626966],[-118.52203219203273,34.051013112639936]]]}},{"type":"Feature","id":977092,"properties":{"source_object_id":977092},"geometry":{"type":"Polygon","coordinates":[[[-118.52200233072372,34.05087799019767],[-118.52242445799631,34.05081340275966],[-118.52245431996401,34.050948525097084],[-118.52203219203273,34.051013112639936],[-118.52200233072372,34.05087799019767]]]}},{"type":"Feature","id":977093,"properties":{"source_object_id":977093},"geometry":{"type":"Polygon","coordinates":[[[-118.52197250252297,34.050742867606196],[-118.52239462913685,34.05067828027289],[-118.52242445799631,34.05081340275966],[-118.52200233072372,34.05087799019767],[-118.52197250252297,34.050742867606196]]]}},{"type":"Feature","id":977094,"properties":{"source_object_id":977094},"geometry":{"type":"Polygon","coordinates":[[[-118.52194267424719,34.05060771753004],[-118.52236476736203,34.050543157922455],[-118.52239462913685,34.05067828027289],[-118.52197250252297,34.050742867606196],[-118.52194267424719,34.05060771753004]]]}},{"type":"Feature","id":977095,"properties":{"source_object_id":977095},"geometry":{"type":"Polygon","coordinates":[[[-118.52191281322739,34.050472595068335],[-118.52233497153549,34.05040800780171],[-118.52236476736203,34.050543157922455],[-118.52194267424719,34.05060771753004],[-118.52191281322739,34.050472595068335]]]}},{"type":"Feature","id":977096,"properties":{"source_object_id":977096},"geometry":{"type":"Polygon","coordinates":[[[-118.52188301832744,34.05033747231472],[-118.52230510995346,34.05027288543829],[-118.52233497153549,34.05040800780171],[-118.52191281322739,34.050472595068335],[-118.52188301832744,34.05033747231472]]]}},{"type":"Feature","id":977097,"properties":{"source_object_id":977097},"geometry":{"type":"Polygon","coordinates":[[[-118.5218531903407,34.05020232221915],[-118.52227524846785,34.05013776306838],[-118.52230510995346,34.05027288543829],[-118.52188301832744,34.05033747231472],[-118.5218531903407,34.05020232221915]]]}},{"type":"Feature","id":977098,"properties":{"source_object_id":977098},"geometry":{"type":"Polygon","coordinates":[[[-118.52182332961019,34.050067199737946],[-118.52224538690723,34.05000261321374],[-118.52227524846785,34.05013776306838],[-118.5218531903407,34.05020232221915],[-118.52182332961019,34.050067199737946]]]}},{"type":"Feature","id":977110,"properties":{"source_object_id":977110},"geometry":{"type":"Polygon","coordinates":[[[-118.52120898030367,34.050021517399664],[-118.52163116971933,34.0499569049742],[-118.5216609972599,34.05009205512301],[-118.52123880701414,34.05015664017497],[-118.52120898030367,34.050021517399664]]]}},{"type":"Feature","id":977111,"properties":{"source_object_id":977111},"geometry":{"type":"Polygon","coordinates":[[[-118.52123880701414,34.05015664017497],[-118.5216609972599,34.05009205512301],[-118.52169082472554,34.05022717778708],[-118.52126866683261,34.0502917628013],[-118.52123880701414,34.05015664017497]]]}},{"type":"Feature","id":977112,"properties":{"source_object_id":977112},"geometry":{"type":"Polygon","coordinates":[[[-118.52126866683261,34.0502917628013],[-118.52169082472554,34.05022717778708],[-118.52172068529921,34.05036230030211],[-118.52129849373587,34.05042688556361],[-118.52126866683261,34.0502917628013]]]}},{"type":"Feature","id":977113,"properties":{"source_object_id":977113},"geometry":{"type":"Polygon","coordinates":[[[-118.52129849373587,34.05042688556361],[-118.52172068529921,34.05036230030211],[-118.52175048011718,34.05049745057414],[-118.52132835391839,34.050562035655226],[-118.52129849373587,34.05042688556361]]]}},{"type":"Feature","id":977114,"properties":{"source_object_id":977114},"geometry":{"type":"Polygon","coordinates":[[[-118.52132835391839,34.050562035655226],[-118.52175048011718,34.05049745057414],[-118.52178034088368,34.05063257307619],[-118.5213581810144,34.050697158404574],[-118.52132835391839,34.050562035655226]]]}},{"type":"Feature","id":977115,"properties":{"source_object_id":977115},"geometry":{"type":"Polygon","coordinates":[[[-118.5213581810144,34.050697158404574],[-118.52178034088368,34.05063257307619],[-118.52181016890611,34.05076772319263],[-118.52138804121853,34.050832281004936],[-118.5213581810144,34.050697158404574]]]}},{"type":"Feature","id":977116,"properties":{"source_object_id":977116},"geometry":{"type":"Polygon","coordinates":[[[-118.52138804121853,34.050832281004936],[-118.52181016890611,34.05076772319263],[-118.52183999685357,34.05090284582433],[-118.52141786850723,34.050967403741325],[-118.52138804121853,34.050832281004936]]]}},{"type":"Feature","id":977117,"properties":{"source_object_id":977117},"geometry":{"type":"Polygon","coordinates":[[[-118.52141786850723,34.050967403741325],[-118.52183999685357,34.05090284582433],[-118.52186982489734,34.051037968449535],[-118.52144772924679,34.05110258128516],[-118.52141786850723,34.050967403741325]]]}},{"type":"Feature","id":977118,"properties":{"source_object_id":977118},"geometry":{"type":"Polygon","coordinates":[[[-118.52144772924679,34.05110258128516],[-118.52186982489734,34.051037968449535],[-118.5218996530374,34.05117309106828],[-118.52147755672829,34.05123770400863],[-118.52144772924679,34.05110258128516]]]}},{"type":"Feature","id":977119,"properties":{"source_object_id":977119},"geometry":{"type":"Polygon","coordinates":[[[-118.52191498482208,34.051408162417914],[-118.52170675768586,34.05136488216377],[-118.52149739581223,34.05132747459065],[-118.52147755672829,34.05123770400863],[-118.5218996530374,34.05117309106828],[-118.52195339802027,34.05141651487633],[-118.52191498482208,34.051408162417914]]]}},{"type":"Feature","id":977120,"properties":{"source_object_id":977120},"geometry":{"type":"Polygon","coordinates":[[[-118.52122548051338,34.05128707284841],[-118.52127334412859,34.05098951624472],[-118.52141786850723,34.050967403741325],[-118.52144772924679,34.05110258128516],[-118.52147755672829,34.05123770400863],[-118.52149739581223,34.05132747459065],[-118.52136162772634,34.051305997902666],[-118.52122548051338,34.05128707284841]]]}},{"type":"Feature","id":977121,"properties":{"source_object_id":977121},"geometry":{"type":"Polygon","coordinates":[[[-118.52111295195755,34.05127318698832],[-118.52104740865708,34.05126585813178],[-118.52099573985177,34.05103201513943],[-118.52127334412859,34.05098951624472],[-118.52122548051338,34.05128707284841],[-118.52111295195755,34.05127318698832]]]}},{"type":"Feature","id":977122,"properties":{"source_object_id":977122},"geometry":{"type":"Polygon","coordinates":[[[-118.52096591305066,34.050896864820096],[-118.52138804121853,34.050832281004936],[-118.52141786850723,34.050967403741325],[-118.52127334412859,34.05098951624472],[-118.52099573985177,34.05103201513943],[-118.52096591305066,34.050896864820096]]]}},{"type":"Feature","id":977123,"properties":{"source_object_id":977123},"geometry":{"type":"Polygon","coordinates":[[[-118.52093605350514,34.050761742114965],[-118.5213581810144,34.050697158404574],[-118.52138804121853,34.050832281004936],[-118.52096591305066,34.050896864820096],[-118.52093605350514,34.050761742114965]]]}},{"type":"Feature","id":977124,"properties":{"source_object_id":977124},"geometry":{"type":"Polygon","coordinates":[[[-118.52090619405612,34.05062661940328],[-118.52132835391839,34.050562035655226],[-118.5213581810144,34.050697158404574],[-118.52093605350514,34.050761742114965],[-118.52090619405612,34.05062661940328]]]}},{"type":"Feature","id":977125,"properties":{"source_object_id":977125},"geometry":{"type":"Polygon","coordinates":[[[-118.52087633470349,34.050491496685154],[-118.52129849373587,34.05042688556361],[-118.52132835391839,34.050562035655226],[-118.52090619405612,34.05062661940328],[-118.52087633470349,34.050491496685154]]]}},{"type":"Feature","id":977126,"properties":{"source_object_id":977126},"geometry":{"type":"Polygon","coordinates":[[[-118.5208464752763,34.05035634648226],[-118.52126866683261,34.0502917628013],[-118.52129849373587,34.05042688556361],[-118.52087633470349,34.050491496685154],[-118.5208464752763,34.05035634648226]]]}},{"type":"Feature","id":977127,"properties":{"source_object_id":977127},"geometry":{"type":"Polygon","coordinates":[[[-118.52081664912824,34.05022122360873],[-118.52123880701414,34.05015664017497],[-118.52126866683261,34.0502917628013],[-118.5208464752763,34.05035634648226],[-118.52081664912824,34.05022122360873]]]}},{"type":"Feature","id":977128,"properties":{"source_object_id":977128},"geometry":{"type":"Polygon","coordinates":[[[-118.52078679006488,34.050086100871106],[-118.52120898030367,34.050021517399664],[-118.52123880701414,34.05015664017497],[-118.52081664912824,34.05022122360873],[-118.52078679006488,34.050086100871106]]]}},{"type":"Feature","id":977138,"properties":{"source_object_id":977138},"geometry":{"type":"Polygon","coordinates":[[[-118.5201725070379,34.05004038549683],[-118.52059459848554,34.049975804600145],[-118.52062445719909,34.05011092738457],[-118.52020236509283,34.05017550838604],[-118.5201725070379,34.05004038549683]]]}},{"type":"Feature","id":977139,"properties":{"source_object_id":977139},"geometry":{"type":"Polygon","coordinates":[[[-118.52020236509283,34.05017550838604],[-118.52062445719909,34.05011092738457],[-118.52065428316847,34.05024607778305],[-118.52023222324424,34.05031063126875],[-118.52020236509283,34.05017550838604]]]}},{"type":"Feature","id":977140,"properties":{"source_object_id":977140},"geometry":{"type":"Polygon","coordinates":[[[-118.52023222324424,34.05031063126875],[-118.52065428316847,34.05024607778305],[-118.52068414207488,34.050381200554476],[-118.52026204865122,34.05044578176544],[-118.52023222324424,34.05031063126875]]]}},{"type":"Feature","id":977141,"properties":{"source_object_id":977141},"geometry":{"type":"Polygon","coordinates":[[[-118.52026204865122,34.05044578176544],[-118.52068414207488,34.050381200554476],[-118.52071400107774,34.05051632331942],[-118.52029190699541,34.05058090463516],[-118.52026204865122,34.05044578176544]]]}},{"type":"Feature","id":977142,"properties":{"source_object_id":977142},"geometry":{"type":"Polygon","coordinates":[[[-118.52029190699541,34.05058090463516],[-118.52071400107774,34.05051632331942],[-118.52074386017706,34.050651446077914],[-118.52032176543608,34.05071602749845],[-118.52029190699541,34.05058090463516]]]}},{"type":"Feature","id":977143,"properties":{"source_object_id":977143},"geometry":{"type":"Polygon","coordinates":[[[-118.52032176543608,34.05071602749845],[-118.52074386017706,34.050651446077914],[-118.52077371954378,34.05078659630809],[-118.52035162397323,34.050851150355186],[-118.52032176543608,34.05071602749845]]]}},{"type":"Feature","id":977144,"properties":{"source_object_id":977144},"geometry":{"type":"Polygon","coordinates":[[[-118.52035162397323,34.050851150355186],[-118.52077371954378,34.05078659630809],[-118.52080354582407,34.05092171919591],[-118.52038144976574,34.05098630082593],[-118.52035162397323,34.050851150355186]]]}},{"type":"Feature","id":977145,"properties":{"source_object_id":977145},"geometry":{"type":"Polygon","coordinates":[[[-118.52038144976574,34.05098630082593],[-118.52080354582407,34.05092171919591],[-118.52083340521268,34.051056841934866],[-118.5204113084957,34.05112142366968],[-118.52038144976574,34.05098630082593]]]}},{"type":"Feature","id":977146,"properties":{"source_object_id":977146},"geometry":{"type":"Polygon","coordinates":[[[-118.52043389849332,34.05122374045764],[-118.5204113084957,34.05112142366968],[-118.52083340521268,34.051056841934866],[-118.52087593536753,34.05124928611735],[-118.52065509829055,34.051233375069046],[-118.52043389849332,34.05122374045764]]]}},{"type":"Feature","id":977147,"properties":{"source_object_id":977147},"geometry":{"type":"Polygon","coordinates":[[[-118.51999719369496,34.0512221318871],[-118.51995935288501,34.05105085350251],[-118.52038144976574,34.05098630082593],[-118.5204113084957,34.05112142366968],[-118.52043389849332,34.05122374045764],[-118.52021555739178,34.05121986902019],[-118.51999719369496,34.0512221318871]]]}},{"type":"Feature","id":977148,"properties":{"source_object_id":977148},"geometry":{"type":"Polygon","coordinates":[[[-118.51992952792206,34.05091573040534],[-118.52035162397323,34.050851150355186],[-118.52038144976574,34.05098630082593],[-118.51995935288501,34.05105085350251],[-118.51992952792206,34.05091573040534]]]}},{"type":"Feature","id":977149,"properties":{"source_object_id":977149},"geometry":{"type":"Polygon","coordinates":[[[-118.51989967004354,34.05078060744381],[-118.52032176543608,34.05071602749845],[-118.52035162397323,34.050851150355186],[-118.51992952792206,34.05091573040534],[-118.51989967004354,34.05078060744381]]]}},{"type":"Feature","id":977150,"properties":{"source_object_id":977150},"geometry":{"type":"Polygon","coordinates":[[[-118.51986981226155,34.050645484475794],[-118.52029190699541,34.05058090463516],[-118.52032176543608,34.05071602749845],[-118.51989967004354,34.05078060744381],[-118.51986981226155,34.050645484475794]]]}},{"type":"Feature","id":977151,"properties":{"source_object_id":977151},"geometry":{"type":"Polygon","coordinates":[[[-118.51983998741697,34.050510333880894],[-118.52026204865122,34.05044578176544],[-118.52029190699541,34.05058090463516],[-118.51986981226155,34.050645484475794],[-118.51983998741697,34.050510333880894]]]}},{"type":"Feature","id":977152,"properties":{"source_object_id":977152},"geometry":{"type":"Polygon","coordinates":[[[-118.51981012982775,34.050375210899894],[-118.52023222324424,34.05031063126875],[-118.52026204865122,34.05044578176544],[-118.51983998741697,34.050510333880894],[-118.51981012982775,34.050375210899894]]]}},{"type":"Feature","id":977153,"properties":{"source_object_id":977153},"geometry":{"type":"Polygon","coordinates":[[[-118.51978027233503,34.05024008791235],[-118.52020236509283,34.05017550838604],[-118.52023222324424,34.05031063126875],[-118.51981012982775,34.050375210899894],[-118.51978027233503,34.05024008791235]]]}},{"type":"Feature","id":977154,"properties":{"source_object_id":977154},"geometry":{"type":"Polygon","coordinates":[[[-118.5197504479503,34.050104964776295],[-118.5201725070379,34.05004038549683],[-118.52020236509283,34.05017550838604],[-118.51978027233503,34.05024008791235],[-118.5197504479503,34.050104964776295]]]}},{"type":"Feature","id":977182,"properties":{"source_object_id":977182},"geometry":{"type":"Polygon","coordinates":[[[-118.51937492046044,34.051140284495425],[-118.51979701807257,34.05107570638309],[-118.5198306127206,34.051227795292455],[-118.51961561293034,34.05124024246452],[-118.51940104223866,34.051258661481185],[-118.51937492046044,34.051140284495425]]]}}]}
