{"type":"FeatureCollection","display_extent_wgs84":[-118.5223,34.05015,-118.5198,34.0517],"features":[{"type":"Feature","id":53772,"properties":{"OBJECTID":53772,"FullName":"Bestor Blvd","Source":"CAMS","SourceID":"BF346294-3C85-4D7E-9D08-3ECBDD1C1848","UpdateDate":1429331240000},"geometry":{"type":"LineString","coordinates":[[-118.518913233005,34.05140484059],[-118.519288233677,34.0513538404804],[-118.51951723264,34.0513308408405],[-118.519931234137,34.0513058408255]]}},{"type":"Feature","id":88910,"properties":{"OBJECTID":88910,"FullName":"Iliff St","Source":"CAMS","SourceID":"583FBB87-430C-4383-A283-11D445B14CD5","UpdateDate":1429331240000},"geometry":{"type":"LineString","coordinates":[[-118.519527233143,34.0494758401226],[-118.519931234137,34.0513058408255]]}},{"type":"Feature","id":169268,"properties":{"OBJECTID":169268,"FullName":"Hartzell St","Source":"CAMS","SourceID":"81ECE31E-A0F2-425A-A9B9-4587FF85EF8A","UpdateDate":1429331240000},"geometry":{"type":"LineString","coordinates":[[-118.520534232141,34.0493218399323],[-118.52098023457,34.0513418403962]]}},{"type":"Feature","id":211227,"properties":{"OBJECTID":211227,"FullName":"Bestor Blvd","Source":"CAMS","SourceID":"6CCB2027-9868-43B0-AFDC-0B34744FB8DF","UpdateDate":1429331240000},"geometry":{"type":"LineString","coordinates":[[-118.522060233855,34.0515218403906],[-118.522295232726,34.051558839451],[-118.522569233399,34.0515868396101],[-118.522846233036,34.0515988400654],[-118.523118234432,34.0515968407947]]}},{"type":"Feature","id":220111,"properties":{"OBJECTID":220111,"FullName":"Bestor Blvd","Source":"CAMS","SourceID":"012FC810-7C0C-44DB-8B0B-788938E4B2C9","UpdateDate":1429331240000},"geometry":{"type":"LineString","coordinates":[[-118.52098023457,34.0513418403962],[-118.521327234286,34.051384840161],[-118.521666234138,34.0514418401381],[-118.522060233855,34.0515218403906]]}},{"type":"Feature","id":334913,"properties":{"OBJECTID":334913,"FullName":"Galloway St","Source":"CAMS","SourceID":"F931640A-586C-4EE2-BC89-F4DD34145086","UpdateDate":1429331240000},"geometry":{"type":"LineString","coordinates":[[-118.52154123398,34.0491678394314],[-118.522060233855,34.0515218403906]]}},{"type":"Feature","id":374317,"properties":{"OBJECTID":374317,"FullName":"Mc Kendree Ave","Source":"CAMS","SourceID":"288B4956-236C-4B6C-8835-2308EB5D7994","UpdateDate":1429331240000},"geometry":{"type":"LineString","coordinates":[[-118.519931234137,34.0513058408255],[-118.519989232272,34.051533840135],[-118.520084234374,34.0517948404818]]}},{"type":"Feature","id":374425,"properties":{"OBJECTID":374425,"FullName":"Bestor Blvd","Source":"CAMS","SourceID":"2A45385F-E38F-4ABF-9426-2CDAA755B45D","UpdateDate":1429331240000},"geometry":{"type":"LineString","coordinates":[[-118.519931234137,34.0513058408255],[-118.520295233368,34.0513028405349],[-118.520641233829,34.0513148408308],[-118.52098023457,34.0513418403962]]}}]}
